{"type": "FeatureCollection", "features": [ {"type": "Feature", "properties": {"norad_id": 66845, "name": "STARLINK-36068", "group": "last-30-days", "lat": -42.03231458575003, "lon": 33.89989924894044, "alt_km": 342.382004597368, "timestamp": "2025-12-14T03:55:51.549754+00:00", "meta": {"OBJECT_NAME": "STARLINK-36068", "OBJECT_ID": "2025-280AA", "EPOCH": "2025-12-13T07:12:04.311360", "MEAN_MOTION": 15.78595395, "ECCENTRICITY": 0.00037846, "INCLINATION": 69.9922, "RA_OF_ASC_NODE": 197.1811, "ARG_OF_PERICENTER": 282.6963, "MEAN_ANOMALY": 77.3813, "EPHEMERIS_TYPE": 0, "CLASSIFICATION_TYPE": "U", "NORAD_CAT_ID": 66845, "ELEMENT_SET_NO": 999, "REV_AT_EPOCH": 301, "BSTAR": -0.0038597391, "MEAN_MOTION_DOT": -0.00627909, "MEAN_MOTION_DDOT": 0}, "tle": {"line1": "1 66845U 25280AA  25347.30004990 -.00627909  00000+0 -38597-2 0  9990", "line2": "2 66845  69.9922 197.1811 0003784 282.6963  77.3813 15.78595395  3014"}}, "geometry": {"type": "Point", "coordinates": [33.89989924894044, -42.03231458575003]}}, {"type": "Feature", "properties": {"norad_id": 66846, "name": "STARLINK-36055", "group": "last-30-days", "lat": -38.3649943291486, "lon": 31.494247737680766, "alt_km": 342.6733376349166, "timestamp": "2025-12-14T03:55:51.549766+00:00", "meta": {"OBJECT_NAME": "STARLINK-36055", "OBJECT_ID": "2025-280AB", "EPOCH": "2025-12-13T07:13:01.412256", "MEAN_MOTION": 15.78514798, "ECCENTRICITY": 0.0003952, "INCLINATION": 69.9915, "RA_OF_ASC_NODE": 197.1834, "ARG_OF_PERICENTER": 281.3811, "MEAN_ANOMALY": 78.6945, "EPHEMERIS_TYPE": 0, "CLASSIFICATION_TYPE": "U", "NORAD_CAT_ID": 66846, "ELEMENT_SET_NO": 999, "REV_AT_EPOCH": 301, "BSTAR": -0.0041000336, "MEAN_MOTION_DOT": -0.00662036, "MEAN_MOTION_DDOT": 0}, "tle": {"line1": "1 66846U 25280AB  25347.30071079 -.00662036  00000+0 -41000-2 0  9996", "line2": "2 66846  69.9915 197.1834 0003952 281.3811  78.6945 15.78514798  3015"}}, "geometry": {"type": "Point", "coordinates": [31.494247737680766, -38.3649943291486]}}, {"type": "Feature", "properties": {"norad_id": 66847, "name": "STARLINK-36061", "group": "last-30-days", "lat": -40.319578869215505, "lon": 32.74015091261145, "alt_km": 342.3734321020502, "timestamp": "2025-12-14T03:55:51.549776+00:00", "meta": {"OBJECT_NAME": "STARLINK-36061", "OBJECT_ID": "2025-280AC", "EPOCH": "2025-12-13T07:12:33.042816", "MEAN_MOTION": 15.7858144, "ECCENTRICITY": 0.00039199, "INCLINATION": 69.9917, "RA_OF_ASC_NODE": 197.1825, "ARG_OF_PERICENTER": 283.2587, "MEAN_ANOMALY": 76.8175, "EPHEMERIS_TYPE": 0, "CLASSIFICATION_TYPE": "U", "NORAD_CAT_ID": 66847, "ELEMENT_SET_NO": 999, "REV_AT_EPOCH": 301, "BSTAR": -0.0038423296, "MEAN_MOTION_DOT": -0.00624938, "MEAN_MOTION_DDOT": 0}, "tle": {"line1": "1 66847U 25280AC  25347.30038244 -.00624938  00000+0 -38423-2 0  9998", "line2": "2 66847  69.9917 197.1825 0003919 283.2587  76.8175 15.78581440  3015"}}, "geometry": {"type": "Point", "coordinates": [32.74015091261145, -40.319578869215505]}}, {"type": "Feature", "properties": {"norad_id": 66848, "name": "STARLINK-36091", "group": "last-30-days", "lat": 23.865799246518115, "lon": 141.8938404101501, "alt_km": 290.33429254674775, "timestamp": "2025-12-14T03:55:51.549786+00:00", "meta": {"OBJECT_NAME": "STARLINK-36091", "OBJECT_ID": "2025-281A", "EPOCH": "2025-12-13T02:10:26.824800", "MEAN_MOTION": 15.90715515, "ECCENTRICITY": 0.00041466, "INCLINATION": 43.0007, "RA_OF_ASC_NODE": 120.2208, "ARG_OF_PERICENTER": 349.8448, "MEAN_ANOMALY": 10.2343, "EPHEMERIS_TYPE": 0, "CLASSIFICATION_TYPE": "U", "NORAD_CAT_ID": 66848, "ELEMENT_SET_NO": 999, "REV_AT_EPOCH": 285, "BSTAR": 0.0021536975, "MEAN_MOTION_DOT": 0.00690634, "MEAN_MOTION_DDOT": 0.00019585193}, "tle": {"line1": "1 66848U 25281A   25347.09058825  .00690634  19585-3  21537-2 0  9997", "line2": "2 66848  43.0007 120.2208 0004146 349.8448  10.2343 15.90715515  2855"}}, "geometry": {"type": "Point", "coordinates": [141.8938404101501, 23.865799246518115]}}, {"type": "Feature", "properties": {"norad_id": 66849, "name": "STARLINK-36102", "group": "last-30-days", "lat": 24.280882874444718, "lon": 142.50001052543246, "alt_km": 296.3467556269452, "timestamp": "2025-12-14T03:55:51.549798+00:00", "meta": {"OBJECT_NAME": "STARLINK-36102", "OBJECT_ID": "2025-281B", "EPOCH": "2025-12-13T06:41:14.592768", "MEAN_MOTION": 15.9065535, "ECCENTRICITY": 0.00064834, "INCLINATION": 43.0006, "RA_OF_ASC_NODE": 119.0476, "ARG_OF_PERICENTER": 237.6409, "MEAN_ANOMALY": 122.3839, "EPHEMERIS_TYPE": 0, "CLASSIFICATION_TYPE": "U", "NORAD_CAT_ID": 66849, "ELEMENT_SET_NO": 999, "REV_AT_EPOCH": 288, "BSTAR": 0.0022924895, "MEAN_MOTION_DOT": 0.00733628, "MEAN_MOTION_DDOT": 0.00022160886}, "tle": {"line1": "1 66849U 25281B   25347.27864112  .00733628  22161-3  22925-2 0  9999", "line2": "2 66849  43.0006 119.0476 0006483 237.6409 122.3839 15.90655350  2883"}}, "geometry": {"type": "Point", "coordinates": [142.50001052543246, 24.280882874444718]}}, {"type": "Feature", "properties": {"norad_id": 66850, "name": "STARLINK-36105", "group": "last-30-days", "lat": 27.181755291819098, "lon": 146.97517040706356, "alt_km": 289.72040593270503, "timestamp": "2025-12-14T03:55:51.549810+00:00", "meta": {"OBJECT_NAME": "STARLINK-36105", "OBJECT_ID": "2025-281C", "EPOCH": "2025-12-13T02:09:07.195104", "MEAN_MOTION": 15.90809005, "ECCENTRICITY": 0.00041873, "INCLINATION": 43.0008, "RA_OF_ASC_NODE": 120.2126, "ARG_OF_PERICENTER": 348.4545, "MEAN_ANOMALY": 11.6233, "EPHEMERIS_TYPE": 0, "CLASSIFICATION_TYPE": "U", "NORAD_CAT_ID": 66850, "ELEMENT_SET_NO": 999, "REV_AT_EPOCH": 285, "BSTAR": 0.0021491117, "MEAN_MOTION_DOT": 0.00692488, "MEAN_MOTION_DDOT": 0.00019716173}, "tle": {"line1": "1 66850U 25281C   25347.08966661  .00692488  19716-3  21491-2 0  9999", "line2": "2 66850  43.0008 120.2126 0004187 348.4545  11.6233 15.90809005  2857"}}, "geometry": {"type": "Point", "coordinates": [146.97517040706356, 27.181755291819098]}}, {"type": "Feature", "properties": {"norad_id": 66851, "name": "STARLINK-36094", "group": "last-30-days", "lat": 25.297585918412906, "lon": 144.0208116601786, "alt_km": 298.92978000867333, "timestamp": "2025-12-14T03:55:51.549821+00:00", "meta": {"OBJECT_NAME": "STARLINK-36094", "OBJECT_ID": "2025-281D", "EPOCH": "2025-12-13T06:39:52.277760", "MEAN_MOTION": 15.89964839, "ECCENTRICITY": 0.00031097, "INCLINATION": 43.0005, "RA_OF_ASC_NODE": 119.0405, "ARG_OF_PERICENTER": 249.6994, "MEAN_ANOMALY": 110.3547, "EPHEMERIS_TYPE": 0, "CLASSIFICATION_TYPE": "U", "NORAD_CAT_ID": 66851, "ELEMENT_SET_NO": 999, "REV_AT_EPOCH": 288, "BSTAR": 0.0006554398, "MEAN_MOTION_DOT": 0.00207646, "MEAN_MOTION_DDOT": 0}, "tle": {"line1": "1 66851U 25281D   25347.27768840  .00207646  00000+0  65544-3 0  9998", "line2": "2 66851  43.0005 119.0405 0003109 249.6994 110.3547 15.89964839  2887"}}, "geometry": {"type": "Point", "coordinates": [144.0208116601786, 25.297585918412906]}}, {"type": "Feature", "properties": {"norad_id": 66852, "name": "STARLINK-35992", "group": "last-30-days", "lat": 29.57576250933968, "lon": 151.04177556195623, "alt_km": 290.11021074494965, "timestamp": "2025-12-14T03:55:51.549831+00:00", "meta": {"OBJECT_NAME": "STARLINK-35992", "OBJECT_ID": "2025-281E", "EPOCH": "2025-12-13T02:07:57.775296", "MEAN_MOTION": 15.90839104, "ECCENTRICITY": 0.00039844, "INCLINATION": 43.0008, "RA_OF_ASC_NODE": 120.2059, "ARG_OF_PERICENTER": 346.7655, "MEAN_ANOMALY": 13.3115, "EPHEMERIS_TYPE": 0, "CLASSIFICATION_TYPE": "U", "NORAD_CAT_ID": 66852, "ELEMENT_SET_NO": 999, "REV_AT_EPOCH": 285, "BSTAR": 0.0018498566, "MEAN_MOTION_DOT": 0.00596999, "MEAN_MOTION_DDOT": 0.00014608553}, "tle": {"line1": "1 66852U 25281E   25347.08886314  .00596999  14609-3  18499-2 0  9997", "line2": "2 66852  43.0008 120.2059 0003984 346.7655  13.3115 15.90839104  2852"}}, "geometry": {"type": "Point", "coordinates": [151.04177556195623, 29.57576250933968]}}, {"type": "Feature", "properties": {"norad_id": 66853, "name": "STARLINK-35986", "group": "last-30-days", "lat": 28.403352543368793, "lon": 149.00176181940634, "alt_km": 299.02096138645993, "timestamp": "2025-12-14T03:55:51.549843+00:00", "meta": {"OBJECT_NAME": "STARLINK-35986", "OBJECT_ID": "2025-281F", "EPOCH": "2025-12-13T06:38:28.442112", "MEAN_MOTION": 15.90153253, "ECCENTRICITY": 0.00023091, "INCLINATION": 43.0005, "RA_OF_ASC_NODE": 119.0322, "ARG_OF_PERICENTER": 242.4337, "MEAN_ANOMALY": 117.6303, "EPHEMERIS_TYPE": 0, "CLASSIFICATION_TYPE": "U", "NORAD_CAT_ID": 66853, "ELEMENT_SET_NO": 999, "REV_AT_EPOCH": 288, "BSTAR": -0.00017869687, "MEAN_MOTION_DOT": -0.00056272, "MEAN_MOTION_DDOT": 0}, "tle": {"line1": "1 66853U 25281F   25347.27671808 -.00056272  00000+0 -17870-3 0  9995", "line2": "2 66853  43.0005 119.0322 0002309 242.4337 117.6303 15.90153253  2882"}}, "geometry": {"type": "Point", "coordinates": [149.00176181940634, 28.403352543368793]}}, {"type": "Feature", "properties": {"norad_id": 66854, "name": "STARLINK-36087", "group": "last-30-days", "lat": 33.09995413004436, "lon": 157.89751711377406, "alt_km": 287.96701876249153, "timestamp": "2025-12-14T03:55:51.549854+00:00", "meta": {"OBJECT_NAME": "STARLINK-36087", "OBJECT_ID": "2025-281G", "EPOCH": "2025-12-13T02:06:23.867136", "MEAN_MOTION": 15.91020373, "ECCENTRICITY": 0.00048587, "INCLINATION": 43.0008, "RA_OF_ASC_NODE": 120.1967, "ARG_OF_PERICENTER": 19.6571, "MEAN_ANOMALY": 340.449, "EPHEMERIS_TYPE": 0, "CLASSIFICATION_TYPE": "U", "NORAD_CAT_ID": 66854, "ELEMENT_SET_NO": 999, "REV_AT_EPOCH": 285, "BSTAR": 0.0017449449, "MEAN_MOTION_DOT": 0.00568609, "MEAN_MOTION_DDOT": 0.00013290224}, "tle": {"line1": "1 66854U 25281G   25347.08777624  .00568609  13290-3  17449-2 0  9998", "line2": "2 66854  43.0008 120.1967 0004858  19.6571 340.4490 15.91020373  2856"}}, "geometry": {"type": "Point", "coordinates": [157.89751711377406, 33.09995413004436]}}]}